OBJECT_NAME,OBJECT_ID,EPOCH,MEAN_MOTION,ECCENTRICITY,INCLINATION,RA_OF_ASC_NODE,ARG_OF_PERICENTER,MEAN_ANOMALY,EPHEMERIS_TYPE,CLASSIFICATION_TYPE,NORAD_CAT_ID,ELEMENT_SET_NO,REV_AT_EPOCH,BSTAR,MEAN_MOTION_DOT,MEAN_MOTION_DDOT
ONEWEB-0531,2022-138AK,2026-06-29T06:40:50.062944,13.20774906,.000281,87.9191,272.0254,98.0298,262.1154,0,U,54146,999,18090,-.10276E-2,-.405E-5,0
ONEWEB-0535,2022-138AL,2026-06-29T08:40:43.511808,13.19725862,.0002095,87.9189,302.5344,92.2681,267.8692,0,U,54147,999,17844,.58136E-4,.36E-6,0
ONEWEB-0536,2022-138AM,2026-06-28T23:05:04.741152,13.20771784,.00030446,87.9183,272.1100,95.9524,264.1957,0,U,54148,999,18085,-.48546228E-4,-.7E-7,0
ONEWEB-0527,2022-166A,2026-06-28T21:49:48.581184,13.21823743,.00020358,87.9244,241.6648,99.8830,260.2534,0,U,54642,999,17308,.24885088E-3,.116E-5,0
ONEWEB-0528,2022-166B,2026-06-29T03:18:00.988416,13.21825080,.0001996,87.9247,241.6219,104.2436,255.8920,0,U,54643,999,17312,.1662E-3,.82E-6,0
ONEWEB-0539,2022-166C,2026-06-28T17:18:29.440512,13.21826978,.00018707,87.9253,241.6769,93.5704,266.5643,0,U,54644,999,17306,.15878374E-3,.79E-6,0
ONEWEB-0540,2022-166D,2026-06-28T17:28:22.296576,13.21827290,.000201,87.9246,241.7052,94.7106,265.4257,0,U,54645,999,17305,-.8701447E-5,.9E-7,0
ONEWEB-0542,2022-166E,2026-06-28T15:44:02.125824,13.21824444,.00018697,87.9256,241.6891,90.7235,269.4113,0,U,54646,999,17305,.14128362E-3,.71E-6,0
ONEWEB-0545,2022-166F,2026-06-29T03:36:10.183104,13.21829078,.0001822,87.9248,241.6016,82.0873,278.0467,0,U,54647,999,17308,.21531E-3,.102E-5,0
ONEWEB-0580,2022-166G,2026-06-28T16:05:47.391360,13.21828473,.00020528,87.9247,241.6966,86.0706,274.0662,0,U,54648,999,17306,.22655277E-3,.107E-5,0
ONEWEB-0582,2022-166H,2026-06-29T13:05:24.612864,13.21828604,.00019,87.9245,241.5150,84.9017,275.2334,0,U,54649,999,17315,.72797E-4,.43E-6,0
ONEWEB-0583,2022-166J,2026-06-28T17:23:21.069888,13.21824502,.00020074,87.9246,241.7018,94.8208,265.3155,0,U,54650,999,17305,-.10825435E-3,-.32E-6,0
ONEWEB-0584,2022-166K,2026-06-28T16:03:23.330592,13.21832303,.00020432,87.9245,241.6982,95.2122,264.9245,0,U,54651,999,17303,-.29104683E-2,-.1189E-4,0
ONEWEB-0585,2022-166L,2026-06-29T12:36:20.998656,13.21827116,.0002101,87.9247,241.5155,100.7011,259.4359,0,U,54652,999,17315,.12596E-3,.65E-6,0
ONEWEB-0586,2022-166M,2026-06-29T12:55:44.386752,13.21824662,.0001907,87.9247,241.5379,94.0493,266.0859,0,U,54653,999,17315,-.21692E-3,-.77E-6,0
ONEWEB-0587,2022-166N,2026-06-28T17:11:14.496864,13.21824955,.00022138,87.9257,241.6762,105.6864,254.4515,0,U,54654,999,17320,.45977506E-4,.32E-6,0
ONEWEB-0589,2022-166P,2026-06-29T03:45:52.794720,13.21825186,.0001966,87.9245,241.5993,72.3657,287.7692,0,U,54655,999,17312,.19186E-4,.21E-6,0
ONEWEB-0590,2022-166Q,2026-06-28T17:27:58.762944,13.21825885,.00024739,87.9254,241.6762,93.2498,266.8919,0,U,54656,999,17305,-.39440058E-3,-.15E-5,0
ONEWEB-0591,2022-166R,2026-06-28T15:56:08.848320,13.21826836,.00021159,87.9245,241.7025,96.1902,263.9473,0,U,54657,999,17307,.19254203E-3,.93E-6,0
ONEWEB-0592,2022-166S,2026-06-28T16:00:57.449376,13.21827604,.00020385,87.9254,241.6811,97.2775,262.8591,0,U,54658,999,17295,.13905163E-3,.7E-6,0
ONEWEB-0593,2022-166T,2026-06-29T03:26:29.592384,13.21825459,.0001885,87.9249,241.5971,95.7774,264.3575,0,U,54659,999,17312,.74163E-4,.44E-6,0
ONEWEB-0594,2022-166U,2026-06-29T13:00:33.374016,13.21827761,.0002048,87.9245,241.5338,102.4138,257.7225,0,U,54660,999,17319,-.20078E-3,-.7E-6,0
ONEWEB-0595,2022-166V,2026-06-29T03:21:39.018816,13.21824639,.0002214,87.9253,241.5956,102.5718,257.5664,0,U,54661,999,17311,.90553E-4,.5E-6,0
ONEWEB-0596,2022-166W,2026-06-28T17:40:17.596992,13.21827202,.00021434,87.9246,241.6868,99.7598,260.3778,0,U,54662,999,17306,.25629127E-3,.119E-5,0
ONEWEB-0597,2022-166X,2026-06-28T17:13:38.941248,13.21827231,.00019818,87.9247,241.6932,94.7406,265.3955,0,U,54663,999,17306,-.14466827E-3,-.47E-6,0
ONEWEB-0600,2022-166Y,2026-06-29T12:46:02.981280,13.21825240,.0001819,87.9247,241.5225,99.1560,260.9779,0,U,54664,999,17314,-.12528E-3,-.39E-6,0
ONEWEB-0601,2022-166Z,2026-06-29T03:28:53.823360,13.21824280,.0001891,87.9244,241.6155,90.3941,269.7409,0,U,54665,999,17328,.50129E-4,.34E-6,0
ONEWEB-0602,2022-166AA,2026-06-28T17:34:14.022336,13.21826764,.00017804,87.9243,241.7036,98.9718,261.1618,0,U,54666,999,17307,.39210675E-4,.29E-6,0
ONEWEB-0603,2022-166AB,2026-06-28T17:42:43.359840,13.21826803,.0001978,87.9255,241.6606,96.0359,264.1000,0,U,54667,999,17300,-.35131512E-4,-.1E-7,0
ONEWEB-0604,2022-166AC,2026-06-28T17:25:43.885632,13.21827982,.0002081,87.9256,241.6787,99.9197,260.2172,0,U,54668,999,17296,.51407651E-4,.34E-6,0
