[
  {
    "name": "ONEWEB-0531",
    "noradId": "54146",
    "line1": "1 54146U 22138AK  26180.27835721 -.00000405  00000+0 -10276-2 0  9996",
    "line2": "2 54146  87.9191 272.0254 0002810  98.0298 262.1154 13.20774906180904"
  },
  {
    "name": "ONEWEB-0535",
    "noradId": "54147",
    "line1": "1 54147U 22138AL  26180.36161472  .00000036  00000+0  58136-4 0  9999",
    "line2": "2 54147  87.9189 302.5344 0002095  92.2681 267.8692 13.19725862178448"
  },
  {
    "name": "ONEWEB-0536",
    "noradId": "54148",
    "line1": "1 54148U 22138AM  26179.96186043 -.00000007  00000+0 -48546-4 0  9999",
    "line2": "2 54148  87.9183 272.1100 0003044  95.9524 264.1957 13.20771784180854"
  },
  {
    "name": "ONEWEB-0527",
    "noradId": "54642",
    "line1": "1 54642U 22166A   26179.90959006  .00000116  00000+0  24885-3 0  9998",
    "line2": "2 54642  87.9244 241.6648 0002035  99.8830 260.2534 13.21823743173080"
  },
  {
    "name": "ONEWEB-0528",
    "noradId": "54643",
    "line1": "1 54643U 22166B   26180.13751144  .00000082  00000+0  16620-3 0  9999",
    "line2": "2 54643  87.9247 241.6219 0001996 104.2436 255.8920 13.21825080173126"
  },
  {
    "name": "ONEWEB-0539",
    "noradId": "54644",
    "line1": "1 54644U 22166C   26179.72117408  .00000079  00000+0  15878-3 0  9992",
    "line2": "2 54644  87.9253 241.6769 0001870  93.5704 266.5643 13.21826978173064"
  },
  {
    "name": "ONEWEB-0540",
    "noradId": "54645",
    "line1": "1 54645U 22166D   26179.72803584  .00000009  00000+0 -87014-5 0  9997",
    "line2": "2 54645  87.9246 241.7052 0002010  94.7106 265.4257 13.21827290173055"
  },
  {
    "name": "ONEWEB-0542",
    "noradId": "54646",
    "line1": "1 54646U 22166E   26179.65558016  .00000071  00000+0  14128-3 0  9999",
    "line2": "2 54646  87.9256 241.6891 0001869  90.7235 269.4113 13.21824444173050"
  },
  {
    "name": "ONEWEB-0545",
    "noradId": "54647",
    "line1": "1 54647U 22166F   26180.15011786  .00000102  00000+0  21531-3 0  9996",
    "line2": "2 54647  87.9248 241.6016 0001822  82.0873 278.0467 13.21829078173081"
  },
  {
    "name": "ONEWEB-0580",
    "noradId": "54648",
    "line1": "1 54648U 22166G   26179.67068740  .00000107  00000+0  22655-3 0  9997",
    "line2": "2 54648  87.9247 241.6966 0002052  86.0706 274.0662 13.21828473173069"
  },
  {
    "name": "ONEWEB-0582",
    "noradId": "54649",
    "line1": "1 54649U 22166H   26180.54542376  .00000043  00000+0  72797-4 0  9990",
    "line2": "2 54649  87.9245 241.5150 0001900  84.9017 275.2334 13.21828604173150"
  },
  {
    "name": "ONEWEB-0583",
    "noradId": "54650",
    "line1": "1 54650U 22166J   26179.72454942 -.00000032  00000+0 -10825-3 0  9994",
    "line2": "2 54650  87.9246 241.7018 0002007  94.8208 265.3155 13.21824502173052"
  },
  {
    "name": "ONEWEB-0584",
    "noradId": "54651",
    "line1": "1 54651U 22166K   26179.66902003 -.00001189  00000+0 -29105-2 0  9998",
    "line2": "2 54651  87.9245 241.6982 0002043  95.2122 264.9245 13.21832303173032"
  },
  {
    "name": "ONEWEB-0585",
    "noradId": "54652",
    "line1": "1 54652U 22166L   26180.52524304  .00000065  00000+0  12596-3 0  9997",
    "line2": "2 54652  87.9247 241.5155 0002101 100.7011 259.4359 13.21827116173154"
  },
  {
    "name": "ONEWEB-0586",
    "noradId": "54653",
    "line1": "1 54653U 22166M   26180.53870818 -.00000077  00000+0 -21692-3 0  9995",
    "line2": "2 54653  87.9247 241.5379 0001907  94.0493 266.0859 13.21824662173157"
  },
  {
    "name": "ONEWEB-0587",
    "noradId": "54654",
    "line1": "1 54654U 22166N   26179.71614001  .00000032  00000+0  45978-4 0  9997",
    "line2": "2 54654  87.9257 241.6762 0002213 105.6864 254.4515 13.21824955173209"
  },
  {
    "name": "ONEWEB-0589",
    "noradId": "54655",
    "line1": "1 54655U 22166P   26180.15686105  .00000021  00000+0  19186-4 0  9992",
    "line2": "2 54655  87.9245 241.5993 0001966  72.3657 287.7692 13.21825186173129"
  },
  {
    "name": "ONEWEB-0590",
    "noradId": "54656",
    "line1": "1 54656U 22166Q   26179.72776346 -.00000150  00000+0 -39440-3 0  9990",
    "line2": "2 54656  87.9254 241.6762 0002473  93.2498 266.8919 13.21825885173052"
  },
  {
    "name": "ONEWEB-0591",
    "noradId": "54657",
    "line1": "1 54657U 22166R   26179.66399130  .00000093  00000+0  19254-3 0  9991",
    "line2": "2 54657  87.9245 241.7025 0002115  96.1902 263.9473 13.21826836173073"
  },
  {
    "name": "ONEWEB-0592",
    "noradId": "54658",
    "line1": "1 54658U 22166S   26179.66733159  .00000070  00000+0  13905-3 0  9997",
    "line2": "2 54658  87.9254 241.6811 0002038  97.2775 262.8591 13.21827604172959"
  },
  {
    "name": "ONEWEB-0593",
    "noradId": "54659",
    "line1": "1 54659U 22166T   26180.14339806  .00000044  00000+0  74163-4 0  9999",
    "line2": "2 54659  87.9249 241.5971 0001885  95.7774 264.3575 13.21825459173126"
  },
  {
    "name": "ONEWEB-0594",
    "noradId": "54660",
    "line1": "1 54660U 22166U   26180.54205294 -.00000070  00000+0 -20078-3 0  9994",
    "line2": "2 54660  87.9245 241.5338 0002048 102.4138 257.7225 13.21827761173196"
  },
  {
    "name": "ONEWEB-0595",
    "noradId": "54661",
    "line1": "1 54661U 22166V   26180.14003494  .00000050  00000+0  90553-4 0  9991",
    "line2": "2 54661  87.9253 241.5956 0002214 102.5718 257.5664 13.21824639173110"
  },
  {
    "name": "ONEWEB-0596",
    "noradId": "54662",
    "line1": "1 54662U 22166W   26179.73631478  .00000119  00000+0  25629-3 0  9991",
    "line2": "2 54662  87.9246 241.6868 0002143  99.7598 260.3778 13.21827202173061"
  },
  {
    "name": "ONEWEB-0597",
    "noradId": "54663",
    "line1": "1 54663U 22166X   26179.71781182 -.00000047  00000+0 -14467-3 0  9998",
    "line2": "2 54663  87.9247 241.6932 0001981  94.7406 265.3955 13.21827231173061"
  },
  {
    "name": "ONEWEB-0600",
    "noradId": "54664",
    "line1": "1 54664U 22166Y   26180.53197895 -.00000039  00000+0 -12528-3 0  9990",
    "line2": "2 54664  87.9247 241.5225 0001819  99.1560 260.9779 13.21825240173148"
  },
  {
    "name": "ONEWEB-0601",
    "noradId": "54665",
    "line1": "1 54665U 22166Z   26180.14506740  .00000034  00000+0  50129-4 0  9994",
    "line2": "2 54665  87.9244 241.6155 0001891  90.3941 269.7409 13.21824280173280"
  },
  {
    "name": "ONEWEB-0602",
    "noradId": "54666",
    "line1": "1 54666U 22166AA  26179.73210674  .00000029  00000+0  39211-4 0  9999",
    "line2": "2 54666  87.9243 241.7036 0001780  98.9718 261.1618 13.21826764173076"
  },
  {
    "name": "ONEWEB-0603",
    "noradId": "54667",
    "line1": "1 54667U 22166AB  26179.73800185 -.00000001  00000+0 -35132-4 0  9992",
    "line2": "2 54667  87.9255 241.6606 0001978  96.0359 264.1000 13.21826803173006"
  },
  {
    "name": "ONEWEB-0604",
    "noradId": "54668",
    "line1": "1 54668U 22166AC  26179.72620238  .00000034  00000+0  51408-4 0  9999",
    "line2": "2 54668  87.9256 241.6787 0002081  99.9197 260.2172 13.21827982172966"
  }
]